{"type": "FeatureCollection", "features": [ {"type": "Feature", "properties": {"norad_id": 66557, "name": "STARLINK-35699", "group": "last-30-days", "lat": -40.188814990833194, "lon": 25.274311698499456, "alt_km": 417.8144418660095, "timestamp": "2025-12-09T11:33:53.575634+00:00", "meta": {"OBJECT_NAME": "STARLINK-35699", "OBJECT_ID": "2025-268A", "EPOCH": "2025-12-09T04:00:01.998720", "MEAN_MOTION": 15.50489822, "ECCENTRICITY": 0.0001094, "INCLINATION": 43.0007, "RA_OF_ASC_NODE": 142.0935, "ARG_OF_PERICENTER": 278.9, "MEAN_ANOMALY": 10.872, "EPHEMERIS_TYPE": 0, "CLASSIFICATION_TYPE": "U", "NORAD_CAT_ID": 66557, "ELEMENT_SET_NO": 999, "REV_AT_EPOCH": 409, "BSTAR": 0.00082154, "MEAN_MOTION_DOT": 0.00047996, "MEAN_MOTION_DDOT": 0}, "tle": {"line1": "1 66557U 25268A   25343.16668980  .00047996  00000+0  82154-3 0  9990", "line2": "2 66557  43.0007 142.0935 0001094 278.9000  10.8720 15.50489822  4094"}}, "geometry": {"type": "Point", "coordinates": [25.274311698499456, -40.188814990833194]}}, {"type": "Feature", "properties": {"norad_id": 66558, "name": "STARLINK-35695", "group": "last-30-days", "lat": -40.71378516749496, "lon": 27.684359726185686, "alt_km": 417.7831677603954, "timestamp": "2025-12-09T11:33:53.575645+00:00", "meta": {"OBJECT_NAME": "STARLINK-35695", "OBJECT_ID": "2025-268B", "EPOCH": "2025-12-09T04:00:01.998720", "MEAN_MOTION": 15.50485928, "ECCENTRICITY": 0.0001202, "INCLINATION": 43.0005, "RA_OF_ASC_NODE": 142.0885, "ARG_OF_PERICENTER": 280.2467, "MEAN_ANOMALY": 11.4447, "EPHEMERIS_TYPE": 0, "CLASSIFICATION_TYPE": "U", "NORAD_CAT_ID": 66558, "ELEMENT_SET_NO": 999, "REV_AT_EPOCH": 409, "BSTAR": 0.00080216, "MEAN_MOTION_DOT": 0.00046843, "MEAN_MOTION_DDOT": 0}, "tle": {"line1": "1 66558U 25268B   25343.16668980  .00046843  00000+0  80216-3 0  9998", "line2": "2 66558  43.0005 142.0885 0001202 280.2467  11.4447 15.50485928  4097"}}, "geometry": {"type": "Point", "coordinates": [27.684359726185686, -40.71378516749496]}}, {"type": "Feature", "properties": {"norad_id": 66559, "name": "STARLINK-35419", "group": "last-30-days", "lat": -41.203707426237855, "lon": 30.21841680370162, "alt_km": 417.1104285058609, "timestamp": "2025-12-09T11:33:53.575655+00:00", "meta": {"OBJECT_NAME": "STARLINK-35419", "OBJECT_ID": "2025-268C", "EPOCH": "2025-12-09T04:00:01.998720", "MEAN_MOTION": 15.50602746, "ECCENTRICITY": 0.0002008, "INCLINATION": 43.0007, "RA_OF_ASC_NODE": 142.0847, "ARG_OF_PERICENTER": 265.3884, "MEAN_ANOMALY": 28.2024, "EPHEMERIS_TYPE": 0, "CLASSIFICATION_TYPE": "U", "NORAD_CAT_ID": 66559, "ELEMENT_SET_NO": 999, "REV_AT_EPOCH": 409, "BSTAR": -0.00171, "MEAN_MOTION_DOT": -0.00099482, "MEAN_MOTION_DDOT": 0}, "tle": {"line1": "1 66559U 25268C   25343.16668980 -.00099482  00000+0 -17100-2 0  9999", "line2": "2 66559  43.0007 142.0847 0002008 265.3884  28.2024 15.50602746  4096"}}, "geometry": {"type": "Point", "coordinates": [30.21841680370162, -41.203707426237855]}}, {"type": "Feature", "properties": {"norad_id": 66560, "name": "STARLINK-35411", "group": "last-30-days", "lat": -41.62351239163598, "lon": 32.70348170627924, "alt_km": 417.1143003389907, "timestamp": "2025-12-09T11:33:53.575666+00:00", "meta": {"OBJECT_NAME": "STARLINK-35411", "OBJECT_ID": "2025-268D", "EPOCH": "2025-12-09T04:00:01.998720", "MEAN_MOTION": 15.50601045, "ECCENTRICITY": 0.0002025, "INCLINATION": 43.0005, "RA_OF_ASC_NODE": 142.08, "ARG_OF_PERICENTER": 267.0064, "MEAN_ANOMALY": 28.5018, "EPHEMERIS_TYPE": 0, "CLASSIFICATION_TYPE": "U", "NORAD_CAT_ID": 66560, "ELEMENT_SET_NO": 999, "REV_AT_EPOCH": 409, "BSTAR": -0.0016548, "MEAN_MOTION_DOT": -0.0009632, "MEAN_MOTION_DDOT": 0}, "tle": {"line1": "1 66560U 25268D   25343.16668980 -.00096320  00000+0 -16548-2 0  9994", "line2": "2 66560  43.0005 142.0800 0002025 267.0064  28.5018 15.50601045  4090"}}, "geometry": {"type": "Point", "coordinates": [32.70348170627924, -41.62351239163598]}}, {"type": "Feature", "properties": {"norad_id": 66561, "name": "STARLINK-35305", "group": "last-30-days", "lat": -42.29959883946563, "lon": 37.76460262720629, "alt_km": 417.1531483857989, "timestamp": "2025-12-09T11:33:53.575676+00:00", "meta": {"OBJECT_NAME": "STARLINK-35305", "OBJECT_ID": "2025-268E", "EPOCH": "2025-12-09T04:00:01.998720", "MEAN_MOTION": 15.50601242, "ECCENTRICITY": 0.0001982, "INCLINATION": 43.0007, "RA_OF_ASC_NODE": 142.0701, "ARG_OF_PERICENTER": 266.4884, "MEAN_ANOMALY": 32.8543, "EPHEMERIS_TYPE": 0, "CLASSIFICATION_TYPE": "U", "NORAD_CAT_ID": 66561, "ELEMENT_SET_NO": 999, "REV_AT_EPOCH": 404, "BSTAR": -0.0016637, "MEAN_MOTION_DOT": -0.00096826, "MEAN_MOTION_DDOT": 0}, "tle": {"line1": "1 66561U 25268E   25343.16668980 -.00096826  00000+0 -16637-2 0  9995", "line2": "2 66561  43.0007 142.0701 0001982 266.4884  32.8543 15.50601242  4042"}}, "geometry": {"type": "Point", "coordinates": [37.76460262720629, -42.29959883946563]}}, {"type": "Feature", "properties": {"norad_id": 66562, "name": "STARLINK-35579", "group": "last-30-days", "lat": -41.9896783369661, "lon": 35.22009355481456, "alt_km": 417.1518486426903, "timestamp": "2025-12-09T11:33:53.575686+00:00", "meta": {"OBJECT_NAME": "STARLINK-35579", "OBJECT_ID": "2025-268F", "EPOCH": "2025-12-09T04:00:01.998720", "MEAN_MOTION": 15.50601766, "ECCENTRICITY": 0.0001971, "INCLINATION": 43.0008, "RA_OF_ASC_NODE": 142.0744, "ARG_OF_PERICENTER": 266.059, "MEAN_ANOMALY": 31.3657, "EPHEMERIS_TYPE": 0, "CLASSIFICATION_TYPE": "U", "NORAD_CAT_ID": 66562, "ELEMENT_SET_NO": 999, "REV_AT_EPOCH": 409, "BSTAR": -0.0016657, "MEAN_MOTION_DOT": -0.00096941, "MEAN_MOTION_DDOT": 0}, "tle": {"line1": "1 66562U 25268F   25343.16668980 -.00096941  00000+0 -16657-2 0  9996", "line2": "2 66562  43.0008 142.0744 0001971 266.0590  31.3657 15.50601766  4095"}}, "geometry": {"type": "Point", "coordinates": [35.22009355481456, -41.9896783369661]}}, {"type": "Feature", "properties": {"norad_id": 66563, "name": "STARLINK-35437", "group": "last-30-days", "lat": -42.552530078053366, "lon": 40.33090408348726, "alt_km": 417.1709728050928, "timestamp": "2025-12-09T11:33:53.575695+00:00", "meta": {"OBJECT_NAME": "STARLINK-35437", "OBJECT_ID": "2025-268G", "EPOCH": "2025-12-09T04:00:01.998720", "MEAN_MOTION": 15.50600454, "ECCENTRICITY": 0.0001962, "INCLINATION": 43.0006, "RA_OF_ASC_NODE": 142.065, "ARG_OF_PERICENTER": 266.2825, "MEAN_ANOMALY": 34.9776, "EPHEMERIS_TYPE": 0, "CLASSIFICATION_TYPE": "U", "NORAD_CAT_ID": 66563, "ELEMENT_SET_NO": 999, "REV_AT_EPOCH": 409, "BSTAR": -0.0016423, "MEAN_MOTION_DOT": -0.00095599, "MEAN_MOTION_DDOT": 0}, "tle": {"line1": "1 66563U 25268G   25343.16668980 -.00095599  00000+0 -16423-2 0  9996", "line2": "2 66563  43.0006 142.0650 0001962 266.2825  34.9776 15.50600454  4097"}}, "geometry": {"type": "Point", "coordinates": [40.33090408348726, -42.552530078053366]}}, {"type": "Feature", "properties": {"norad_id": 66564, "name": "STARLINK-35358", "group": "last-30-days", "lat": -42.74759057147879, "lon": 42.915970976186685, "alt_km": 417.16792479951437, "timestamp": "2025-12-09T11:33:53.575705+00:00", "meta": {"OBJECT_NAME": "STARLINK-35358", "OBJECT_ID": "2025-268H", "EPOCH": "2025-12-09T04:00:01.998720", "MEAN_MOTION": 15.50604129, "ECCENTRICITY": 0.0001969, "INCLINATION": 43.0006, "RA_OF_ASC_NODE": 142.0609, "ARG_OF_PERICENTER": 265.9996, "MEAN_ANOMALY": 37.1745, "EPHEMERIS_TYPE": 0, "CLASSIFICATION_TYPE": "U", "NORAD_CAT_ID": 66564, "ELEMENT_SET_NO": 999, "REV_AT_EPOCH": 404, "BSTAR": -0.0017249, "MEAN_MOTION_DOT": -0.00100341, "MEAN_MOTION_DDOT": 0}, "tle": {"line1": "1 66564U 25268H   25343.16668980 -.00100341  00000+0 -17249-2 0  9996", "line2": "2 66564  43.0006 142.0609 0001969 265.9996  37.1745 15.50604129  4043"}}, "geometry": {"type": "Point", "coordinates": [42.915970976186685, -42.74759057147879]}}, {"type": "Feature", "properties": {"norad_id": 66565, "name": "STARLINK-35893", "group": "last-30-days", "lat": -42.88415087661197, "lon": 45.51458212915447, "alt_km": 417.1104215615187, "timestamp": "2025-12-09T11:33:53.575717+00:00", "meta": {"OBJECT_NAME": "STARLINK-35893", "OBJECT_ID": "2025-268J", "EPOCH": "2025-12-09T04:00:01.998720", "MEAN_MOTION": 15.50598923, "ECCENTRICITY": 0.000206, "INCLINATION": 43.0007, "RA_OF_ASC_NODE": 142.0552, "ARG_OF_PERICENTER": 265.0478, "MEAN_ANOMALY": 40.0466, "EPHEMERIS_TYPE": 0, "CLASSIFICATION_TYPE": "U", "NORAD_CAT_ID": 66565, "ELEMENT_SET_NO": 999, "REV_AT_EPOCH": 409, "BSTAR": -0.0015944, "MEAN_MOTION_DOT": -0.0009285, "MEAN_MOTION_DDOT": 0}, "tle": {"line1": "1 66565U 25268J   25343.16668980 -.00092850  00000+0 -15944-2 0  9992", "line2": "2 66565  43.0007 142.0552 0002060 265.0478  40.0466 15.50598923  4093"}}, "geometry": {"type": "Point", "coordinates": [45.51458212915447, -42.88415087661197]}}, {"type": "Feature", "properties": {"norad_id": 66566, "name": "STARLINK-35871", "group": "last-30-days", "lat": -42.961282432096574, "lon": 48.12341100708879, "alt_km": 417.1966612054348, "timestamp": "2025-12-09T11:33:53.575727+00:00", "meta": {"OBJECT_NAME": "STARLINK-35871", "OBJECT_ID": "2025-268K", "EPOCH": "2025-12-09T04:00:01.998720", "MEAN_MOTION": 15.50608526, "ECCENTRICITY": 0.0001935, "INCLINATION": 43.0006, "RA_OF_ASC_NODE": 142.0496, "ARG_OF_PERICENTER": 265.0423, "MEAN_ANOMALY": 41.9646, "EPHEMERIS_TYPE": 0, "CLASSIFICATION_TYPE": "U", "NORAD_CAT_ID": 66566, "ELEMENT_SET_NO": 999, "REV_AT_EPOCH": 409, "BSTAR": -0.0018391, "MEAN_MOTION_DOT": -0.00106891, "MEAN_MOTION_DDOT": 0}, "tle": {"line1": "1 66566U 25268K   25343.16668980 -.00106891  00000+0 -18391-2 0  9993", "line2": "2 66566  43.0006 142.0496 0001935 265.0423  41.9646 15.50608526  4091"}}, "geometry": {"type": "Point", "coordinates": [48.12341100708879, -42.961282432096574]}}]}